SHIJIAN-16 (SJ-16)      
1 39358U 13057A   25326.55230528  .00002043  00000+0  20432-3 0  9994
2 39358  74.9745  27.8491 0016856   7.9873 352.1579 14.91900363655528
SL-4 R/B                
1 39679U 14021B   25325.93012354  .00013691  00000+0  33250-3 0  9991
2 39679  51.6046 141.6696 0103376  71.4158 289.8020 15.35928250639699
ALOS-2                  
1 39766U 14029A   25326.31791522 -.00000554  00000+0 -67346-4 0  9990
2 39766  97.9234  61.4543 0001309  97.6207 262.5154 14.79475260620990
YAOGAN-29               
1 41038U 15069A   25326.50872057  .00000565  00000+0  76496-4 0  9990
2 41038  98.0238 349.6136 0001558  30.7983 329.3321 14.82850300539998
ASTRO-H (HITOMI)        
1 41337U 16012A   25326.18813397  .00003802  00000+0  22764-3 0  9992
2 41337  31.0013 329.8426 0009704 329.9163  30.0917 15.09169347535979
HXMT (HUIYAN)           
1 42758U 17034A   25326.30156186  .00008246  00000+0  42750-3 0  9999
2 42758  43.0146 253.0230 0034107 275.7789  83.9170 15.15972230466235
CZ-2C R/B               
1 43521U 18054D   25326.34516789  .00097877  00000+0  78042-3 0  9995
2 43521  35.1363 318.7077 0022134 298.6445  61.2061 15.69535993411840
SAOCOM 1A               
1 43641U 18076A   25326.48623213  .00000561  00000+0  77042-4 0  9992
2 43641  97.8852 151.2026 0001569  90.7836 269.3557 14.82144879385483
H-2A R/B                
1 43682U 18084L   25326.11807902  .00020523  00000+0  57252-3 0  9995
2 43682  98.8785 155.9402 0028839  36.6791 323.6415 15.36383026389234
SAOCOM 1B               
1 46265U 20059A   25326.51750910  .00000566  00000+0  77650-4 0  9990
2 46265  97.8847 150.3351 0001338  89.8984 270.2383 14.82153637282879
CSS (TIANHE)            
1 48274U 21035A   25326.40309895  .00021722  00000+0  26989-3 0  9992
2 48274  41.4655 140.0755 0007784 217.1176 142.9125 15.59436574260859
COSMOS 2550             
1 48865U 21056A   25326.51165322  .00000029  00000+0  67297-5 0  9994
2 48865  67.1437   5.1202 0008259 268.7733  91.2475 15.33756869247027
