CCSDS_OMM_VERS = 2.0
CREATION_DATE  = 
ORIGINATOR     = 

OBJECT_NAME    = SHIJIAN-16 (SJ-16)
OBJECT_ID      = 2013-057A
CENTER_NAME    = EARTH
REF_FRAME      = TEME
TIME_SYSTEM    = UTC
MEAN_ELEMENT_THEORY = SGP/SGP4

EPOCH          = 2025-11-22T13:15:19.176192
MEAN_MOTION    = 14.91900363
ECCENTRICITY   = .0016856
INCLINATION    = 74.9745
RA_OF_ASC_NODE = 27.8491
ARG_OF_PERICENTER = 7.9873
MEAN_ANOMALY   = 352.1579

EPHEMERIS_TYPE = 0
CLASSIFICATION_TYPE = U
NORAD_CAT_ID   = 39358
ELEMENT_SET_NO = 999
REV_AT_EPOCH   = 65552
BSTAR          = .20432E-3
MEAN_MOTION_DOT = .2043E-4
MEAN_MOTION_DDOT = 0

CCSDS_OMM_VERS = 2.0
CREATION_DATE  = 
ORIGINATOR     = 

OBJECT_NAME    = SL-4 R/B
OBJECT_ID      = 2014-021B
CENTER_NAME    = EARTH
REF_FRAME      = TEME
TIME_SYSTEM    = UTC
MEAN_ELEMENT_THEORY = SGP/SGP4

EPOCH          = 2025-11-21T22:19:22.673856
MEAN_MOTION    = 15.35928250
ECCENTRICITY   = .0103376
INCLINATION    = 51.6046
RA_OF_ASC_NODE = 141.6696
ARG_OF_PERICENTER = 71.4158
MEAN_ANOMALY   = 289.8020

EPHEMERIS_TYPE = 0
CLASSIFICATION_TYPE = U
NORAD_CAT_ID   = 39679
ELEMENT_SET_NO = 999
REV_AT_EPOCH   = 63969
BSTAR          = .3325E-3
MEAN_MOTION_DOT = .13691E-3
MEAN_MOTION_DDOT = 0

CCSDS_OMM_VERS = 2.0
CREATION_DATE  = 
ORIGINATOR     = 

OBJECT_NAME    = ALOS-2
OBJECT_ID      = 2014-029A
CENTER_NAME    = EARTH
REF_FRAME      = TEME
TIME_SYSTEM    = UTC
MEAN_ELEMENT_THEORY = SGP/SGP4

EPOCH          = 2025-11-22T07:37:47.875008
MEAN_MOTION    = 14.79475260
ECCENTRICITY   = .0001309
INCLINATION    = 97.9234
RA_OF_ASC_NODE = 61.4543
ARG_OF_PERICENTER = 97.6207
MEAN_ANOMALY   = 262.5154

EPHEMERIS_TYPE = 0
CLASSIFICATION_TYPE = U
NORAD_CAT_ID   = 39766
ELEMENT_SET_NO = 999
REV_AT_EPOCH   = 62099
BSTAR          = -.67346E-4
MEAN_MOTION_DOT = -.554E-5
MEAN_MOTION_DDOT = 0

CCSDS_OMM_VERS = 2.0
CREATION_DATE  = 
ORIGINATOR     = 

OBJECT_NAME    = YAOGAN-29
OBJECT_ID      = 2015-069A
CENTER_NAME    = EARTH
REF_FRAME      = TEME
TIME_SYSTEM    = UTC
MEAN_ELEMENT_THEORY = SGP/SGP4

EPOCH          = 2025-11-22T12:12:33.457248
MEAN_MOTION    = 14.82850300
ECCENTRICITY   = .0001558
INCLINATION    = 98.0238
RA_OF_ASC_NODE = 349.6136
ARG_OF_PERICENTER = 30.7983
MEAN_ANOMALY   = 329.3321

EPHEMERIS_TYPE = 0
CLASSIFICATION_TYPE = U
NORAD_CAT_ID   = 41038
ELEMENT_SET_NO = 999
REV_AT_EPOCH   = 53999
BSTAR          = .76496E-4
MEAN_MOTION_DOT = .565E-5
MEAN_MOTION_DDOT = 0

CCSDS_OMM_VERS = 2.0
CREATION_DATE  = 
ORIGINATOR     = 

OBJECT_NAME    = ASTRO-H (HITOMI)
OBJECT_ID      = 2016-012A
CENTER_NAME    = EARTH
REF_FRAME      = TEME
TIME_SYSTEM    = UTC
MEAN_ELEMENT_THEORY = SGP/SGP4

EPOCH          = 2025-11-22T04:30:54.775008
MEAN_MOTION    = 15.09169347
ECCENTRICITY   = .0009704
INCLINATION    = 31.0013
RA_OF_ASC_NODE = 329.8426
ARG_OF_PERICENTER = 329.9163
MEAN_ANOMALY   = 30.0917

EPHEMERIS_TYPE = 0
CLASSIFICATION_TYPE = U
NORAD_CAT_ID   = 41337
ELEMENT_SET_NO = 999
REV_AT_EPOCH   = 53597
BSTAR          = .22764E-3
MEAN_MOTION_DOT = .3802E-4
MEAN_MOTION_DDOT = 0

CCSDS_OMM_VERS = 2.0
CREATION_DATE  = 
ORIGINATOR     = 

OBJECT_NAME    = HXMT (HUIYAN)
OBJECT_ID      = 2017-034A
CENTER_NAME    = EARTH
REF_FRAME      = TEME
TIME_SYSTEM    = UTC
MEAN_ELEMENT_THEORY = SGP/SGP4

EPOCH          = 2025-11-22T07:14:14.944704
MEAN_MOTION    = 15.15972230
ECCENTRICITY   = .0034107
INCLINATION    = 43.0146
RA_OF_ASC_NODE = 253.0230
ARG_OF_PERICENTER = 275.7789
MEAN_ANOMALY   = 83.9170

EPHEMERIS_TYPE = 0
CLASSIFICATION_TYPE = U
NORAD_CAT_ID   = 42758
ELEMENT_SET_NO = 999
REV_AT_EPOCH   = 46623
BSTAR          = .4275E-3
MEAN_MOTION_DOT = .8246E-4
MEAN_MOTION_DDOT = 0

CCSDS_OMM_VERS = 2.0
CREATION_DATE  = 
ORIGINATOR     = 

OBJECT_NAME    = CZ-2C R/B
OBJECT_ID      = 2018-054D
CENTER_NAME    = EARTH
REF_FRAME      = TEME
TIME_SYSTEM    = UTC
MEAN_ELEMENT_THEORY = SGP/SGP4

EPOCH          = 2025-11-22T08:17:02.505696
MEAN_MOTION    = 15.69535993
ECCENTRICITY   = .0022134
INCLINATION    = 35.1363
RA_OF_ASC_NODE = 318.7077
ARG_OF_PERICENTER = 298.6445
MEAN_ANOMALY   = 61.2061

EPHEMERIS_TYPE = 0
CLASSIFICATION_TYPE = U
NORAD_CAT_ID   = 43521
ELEMENT_SET_NO = 999
REV_AT_EPOCH   = 41184
BSTAR          = .78042E-3
MEAN_MOTION_DOT = .97877E-3
MEAN_MOTION_DDOT = 0

CCSDS_OMM_VERS = 2.0
CREATION_DATE  = 
ORIGINATOR     = 

OBJECT_NAME    = SAOCOM 1A
OBJECT_ID      = 2018-076A
CENTER_NAME    = EARTH
REF_FRAME      = TEME
TIME_SYSTEM    = UTC
MEAN_ELEMENT_THEORY = SGP/SGP4

EPOCH          = 2025-11-22T11:40:10.456032
MEAN_MOTION    = 14.82144879
ECCENTRICITY   = .0001569
INCLINATION    = 97.8852
RA_OF_ASC_NODE = 151.2026
ARG_OF_PERICENTER = 90.7836
MEAN_ANOMALY   = 269.3557

EPHEMERIS_TYPE = 0
CLASSIFICATION_TYPE = U
NORAD_CAT_ID   = 43641
ELEMENT_SET_NO = 999
REV_AT_EPOCH   = 38548
BSTAR          = .77042E-4
MEAN_MOTION_DOT = .561E-5
MEAN_MOTION_DDOT = 0

CCSDS_OMM_VERS = 2.0
CREATION_DATE  = 
ORIGINATOR     = 

OBJECT_NAME    = H-2A R/B
OBJECT_ID      = 2018-084L
CENTER_NAME    = EARTH
REF_FRAME      = TEME
TIME_SYSTEM    = UTC
MEAN_ELEMENT_THEORY = SGP/SGP4

EPOCH          = 2025-11-22T02:50:02.027328
MEAN_MOTION    = 15.36383026
ECCENTRICITY   = .0028839
INCLINATION    = 98.8785
RA_OF_ASC_NODE = 155.9402
ARG_OF_PERICENTER = 36.6791
MEAN_ANOMALY   = 323.6415

EPHEMERIS_TYPE = 0
CLASSIFICATION_TYPE = U
NORAD_CAT_ID   = 43682
ELEMENT_SET_NO = 999
REV_AT_EPOCH   = 38923
BSTAR          = .57252E-3
MEAN_MOTION_DOT = .20523E-3
MEAN_MOTION_DDOT = 0

CCSDS_OMM_VERS = 2.0
CREATION_DATE  = 
ORIGINATOR     = 

OBJECT_NAME    = SAOCOM 1B
OBJECT_ID      = 2020-059A
CENTER_NAME    = EARTH
REF_FRAME      = TEME
TIME_SYSTEM    = UTC
MEAN_ELEMENT_THEORY = SGP/SGP4

EPOCH          = 2025-11-22T12:25:12.786240
MEAN_MOTION    = 14.82153637
ECCENTRICITY   = .0001338
INCLINATION    = 97.8847
RA_OF_ASC_NODE = 150.3351
ARG_OF_PERICENTER = 89.8984
MEAN_ANOMALY   = 270.2383

EPHEMERIS_TYPE = 0
CLASSIFICATION_TYPE = U
NORAD_CAT_ID   = 46265
ELEMENT_SET_NO = 999
REV_AT_EPOCH   = 28287
BSTAR          = .7765E-4
MEAN_MOTION_DOT = .566E-5
MEAN_MOTION_DDOT = 0

CCSDS_OMM_VERS = 2.0
CREATION_DATE  = 
ORIGINATOR     = 

OBJECT_NAME    = CSS (TIANHE)
OBJECT_ID      = 2021-035A
CENTER_NAME    = EARTH
REF_FRAME      = TEME
TIME_SYSTEM    = UTC
MEAN_ELEMENT_THEORY = SGP/SGP4

EPOCH          = 2025-11-22T09:40:27.749280
MEAN_MOTION    = 15.59436574
ECCENTRICITY   = .0007784
INCLINATION    = 41.4655
RA_OF_ASC_NODE = 140.0755
ARG_OF_PERICENTER = 217.1176
MEAN_ANOMALY   = 142.9125

EPHEMERIS_TYPE = 0
CLASSIFICATION_TYPE = U
NORAD_CAT_ID   = 48274
ELEMENT_SET_NO = 999
REV_AT_EPOCH   = 26085
BSTAR          = .26989E-3
MEAN_MOTION_DOT = .21722E-3
MEAN_MOTION_DDOT = 0

CCSDS_OMM_VERS = 2.0
CREATION_DATE  = 
ORIGINATOR     = 

OBJECT_NAME    = COSMOS 2550
OBJECT_ID      = 2021-056A
CENTER_NAME    = EARTH
REF_FRAME      = TEME
TIME_SYSTEM    = UTC
MEAN_ELEMENT_THEORY = SGP/SGP4

EPOCH          = 2025-11-22T12:16:46.838208
MEAN_MOTION    = 15.33756869
ECCENTRICITY   = .0008259
INCLINATION    = 67.1437
RA_OF_ASC_NODE = 5.1202
ARG_OF_PERICENTER = 268.7733
MEAN_ANOMALY   = 91.2475

EPHEMERIS_TYPE = 0
CLASSIFICATION_TYPE = U
NORAD_CAT_ID   = 48865
ELEMENT_SET_NO = 999
REV_AT_EPOCH   = 24702
BSTAR          = .67297E-5
MEAN_MOTION_DOT = .29E-6
MEAN_MOTION_DDOT = 0

